[{"OBJECT_NAME":"STARLINK-34312","OBJECT_ID":"2025-142R","EPOCH":"2026-03-09T23:21:11.585664","MEAN_MOTION":14.98336997,"ECCENTRICITY":0.00023746,"INCLINATION":70.0006,"RA_OF_ASC_NODE":313.7209,"ARG_OF_PERICENTER":269.784,"MEAN_ANOMALY":90.3047,"EPHEMERIS_TYPE":0,"CLASSIFICATION_TYPE":"U","NORAD_CAT_ID":64711,"ELEMENT_SET_NO":999,"REV_AT_EPOCH":3969,"BSTAR":0.0002393619,"MEAN_MOTION_DOT":2.765e-5,"MEAN_MOTION_DDOT":0},{"OBJECT_NAME":"SENTINEL-1B","OBJECT_ID":"2016-025A","EPOCH":"2026-03-09T22:22:55.750080","MEAN_MOTION":14.98768491,"ECCENTRICITY":0.00163778,"INCLINATION":98.1047,"RA_OF_ASC_NODE":125.8491,"ARG_OF_PERICENTER":100.1359,"MEAN_ANOMALY":260.1711,"EPHEMERIS_TYPE":0,"CLASSIFICATION_TYPE":"U","NORAD_CAT_ID":41456,"ELEMENT_SET_NO":999,"REV_AT_EPOCH":52891,"BSTAR":0.00015358389,"MEAN_MOTION_DOT":1.79e-5,"MEAN_MOTION_DDOT":0}]
